start=new Date('2022-03-29T00:00:00.000Z').valueOf();
sats=[{"OBJECT_TYPE":"PAYLOAD","ARG_OF_PERICENTER":"51.9582","DECAY_DATE":null,"CLASSIFICATION_TYPE":"U","RCS_SIZE":"LARGE","NORAD_CAT_ID":"47980","TIME_SYSTEM":"UTC","FILE":"3378342","LAUNCH_DATE":"2021-03-24","PERIOD":"95.592","TLE_LINE1":"1 47980U 21024D   22087.91667824 -.00003709  00000-0 -23018-3 0  9997","REV_AT_EPOCH":"358","ECCENTRICITY":"0.00017670","PERIAPSIS":"545.982","OBJECT_NAME":"STARLINK-2312","INCLINATION":"53.0546","ELEMENT_SET_NO":"999","SEMIMAJOR_AXIS":"6925.340","EPHEMERIS_TYPE":"0","COUNTRY_CODE":"US","BSTAR":"-0.00023018000000","SITE":"AFETR","MEAN_ANOMALY":"196.1309","APOAPSIS":"548.429","MEAN_ELEMENT_THEORY":"SGP4","GP_ID":"199944188","CENTER_NAME":"EARTH","RA_OF_ASC_NODE":"243.9916","EPOCH":"2022-03-28T22:00:00.999936","TLE_LINE2":"2 47980  53.0546 243.9916 0001767  51.9582 196.1309 15.06402630  3580","REF_FRAME":"TEME","MEAN_MOTION_DDOT":"0.0000000000000","OBJECT_ID":"2021-024D","MEAN_MOTION_DOT":"-0.00003709","MEAN_MOTION":"15.06402630"},{"CLASSIFICATION_TYPE":"U","NORAD_CAT_ID":"47981","RCS_SIZE":"LARGE","OBJECT_TYPE":"PAYLOAD","DECAY_DATE":null,"ARG_OF_PERICENTER":"59.0656","FILE":"3378342","TIME_SYSTEM":"UTC","ECCENTRICITY":"0.00013280","TLE_LINE1":"1 47981U 21024E   22087.91384394  .00003399  00000-0  24691-3 0  9997","REV_AT_EPOCH":"5725","PERIOD":"95.591","LAUNCH_DATE":"2021-03-24","ELEMENT_SET_NO":"999","OBJECT_NAME":"STARLINK-2303","INCLINATION":"53.0544","PERIAPSIS":"546.261","MEAN_ANOMALY":"301.0463","COUNTRY_CODE":"US","BSTAR":"0.00024691000000","SITE":"AFETR","EPHEMERIS_TYPE":"0","SEMIMAJOR_AXIS":"6925.315","RA_OF_ASC_NODE":"329.0044","GP_ID":"199942936","CENTER_NAME":"EARTH","APOAPSIS":"548.100","MEAN_ELEMENT_THEORY":"SGP4","REF_FRAME":"TEME","MEAN_MOTION_DDOT":"0.0000000000000","TLE_LINE2":"2 47981  53.0544 329.0044 0001328  59.0656 301.0463 15.06410880 57258","EPOCH":"2022-03-28T21:55:56.116416","MEAN_MOTION":"15.06410880","MEAN_MOTION_DOT":"0.00003399","OBJECT_ID":"2021-024E"},{"MEAN_ANOMALY":"79.8748","BSTAR":"0.00087863000000","COUNTRY_CODE":"US","SITE":"AFETR","EPHEMERIS_TYPE":"0","SEMIMAJOR_AXIS":"6925.379","RA_OF_ASC_NODE":"258.9818","GP_ID":"199943186","CENTER_NAME":"EARTH","APOAPSIS":"548.519","MEAN_ELEMENT_THEORY":"SGP4","REF_FRAME":"TEME","MEAN_MOTION_DDOT":"0.0000000000000","TLE_LINE2":"2 47982  53.0528 258.9818 0001842  40.6225  79.8748 15.06390209  3595","EPOCH":"2022-03-28T22:00:00.999936","MEAN_MOTION_DOT":"0.00012826","MEAN_MOTION":"15.06390209","OBJECT_ID":"2021-024F","CLASSIFICATION_TYPE":"U","NORAD_CAT_ID":"47982","RCS_SIZE":"LARGE","OBJECT_TYPE":"PAYLOAD","ARG_OF_PERICENTER":"40.6225","DECAY_DATE":null,"FILE":"3378342","TIME_SYSTEM":"UTC","ECCENTRICITY":"0.00018420","TLE_LINE1":"1 47982U 21024F   22087.91667824  .00012826  00000-0  87863-3 0  9995","REV_AT_EPOCH":"359","PERIOD":"95.593","LAUNCH_DATE":"2021-03-24","ELEMENT_SET_NO":"999","OBJECT_NAME":"STARLINK-2317","INCLINATION":"53.0528","PERIAPSIS":"545.968"},{"SEMIMAJOR_AXIS":"6925.365","EPHEMERIS_TYPE":"0","COUNTRY_CODE":"US","BSTAR":"0.00073584000000","SITE":"AFETR","MEAN_ANOMALY":"109.6797","APOAPSIS":"548.251","MEAN_ELEMENT_THEORY":"SGP4","GP_ID":"199943938","CENTER_NAME":"EARTH","RA_OF_ASC_NODE":"263.9960","EPOCH":"2022-03-28T22:00:00.999936","TLE_LINE2":"2 47985  53.0539 263.9960 0001474  68.4043 109.6797 15.06394633  3581","REF_FRAME":"TEME","MEAN_MOTION_DDOT":"0.0000000000000","OBJECT_ID":"2021-024J","MEAN_MOTION_DOT":"0.00010694","MEAN_MOTION":"15.06394633","OBJECT_TYPE":"PAYLOAD","ARG_OF_PERICENTER":"68.4043","DECAY_DATE":null,"CLASSIFICATION_TYPE":"U","NORAD_CAT_ID":"47985","RCS_SIZE":"LARGE","TIME_SYSTEM":"UTC","FILE":"3378342","LAUNCH_DATE":"2021-03-24","PERIOD":"95.592","TLE_LINE1":"1 47985U 21024J   22087.91667824  .00010694  00000-0  73584-3 0  9994","REV_AT_EPOCH":"358","ECCENTRICITY":"0.00014740","PERIAPSIS":"546.209","OBJECT_NAME":"STARLINK-2308","INCLINATION":"53.0539","ELEMENT_SET_NO":"999"},{"NORAD_CAT_ID":"47988","RCS_SIZE":"LARGE","CLASSIFICATION_TYPE":"U","DECAY_DATE":null,"ARG_OF_PERICENTER":"47.6848","OBJECT_TYPE":"PAYLOAD","TIME_SYSTEM":"UTC","FILE":"3378342","PERIOD":"92.035","LAUNCH_DATE":"2021-03-24","ECCENTRICITY":"0.00026430","REV_AT_EPOCH":"5784","TLE_LINE1":"1 47988U 21024M   22087.80253818  .00061870  00000-0  62844-3 0  9998","INCLINATION":"53.0546","OBJECT_NAME":"STARLINK-2306","PERIAPSIS":"372.536","ELEMENT_SET_NO":"999","EPHEMERIS_TYPE":"0","SEMIMAJOR_AXIS":"6752.456","MEAN_ANOMALY":"312.4390","SITE":"AFETR","COUNTRY_CODE":"US","BSTAR":"0.00062844000000","MEAN_ELEMENT_THEORY":"SGP4","APOAPSIS":"376.105","RA_OF_ASC_NODE":"281.8704","CENTER_NAME":"EARTH","GP_ID":"199943688","TLE_LINE2":"2 47988  53.0546 281.8704 0002643  47.6848 312.4390 15.64624568 57846","EPOCH":"2022-03-28T19:15:39.298752","MEAN_MOTION_DDOT":"0.0000000000000","REF_FRAME":"TEME","OBJECT_ID":"2021-024M","MEAN_MOTION_DOT":"0.00061870","MEAN_MOTION":"15.64624568"},{"MEAN_MOTION_DDOT":"0.0000000000000","REF_FRAME":"TEME","EPOCH":"2022-03-28T22:00:00.999936","TLE_LINE2":"2 47989  53.0529 238.9844 0001296  80.2435  95.3756 15.06380970  3581","MEAN_MOTION":"15.06380970","MEAN_MOTION_DOT":"0.00013585","OBJECT_ID":"2021-024N","SITE":"AFETR","BSTAR":"0.00092964000000","COUNTRY_CODE":"US","MEAN_ANOMALY":"95.3756","SEMIMAJOR_AXIS":"6925.407","EPHEMERIS_TYPE":"0","CENTER_NAME":"EARTH","GP_ID":"199942436","RA_OF_ASC_NODE":"238.9844","MEAN_ELEMENT_THEORY":"SGP4","APOAPSIS":"548.169","REV_AT_EPOCH":"358","TLE_LINE1":"1 47989U 21024N   22087.91667824  .00013585  00000-0  92964-3 0  9993","ECCENTRICITY":"0.00012960","LAUNCH_DATE":"2021-03-24","PERIOD":"95.593","ELEMENT_SET_NO":"999","PERIAPSIS":"546.374","INCLINATION":"53.0529","OBJECT_NAME":"STARLINK-2305","DECAY_DATE":null,"ARG_OF_PERICENTER":"80.2435","OBJECT_TYPE":"PAYLOAD","NORAD_CAT_ID":"47989","RCS_SIZE":"LARGE","CLASSIFICATION_TYPE":"U","FILE":"3378342","TIME_SYSTEM":"UTC"},{"LAUNCH_DATE":"2021-03-24","PERIOD":"95.592","REV_AT_EPOCH":"359","TLE_LINE1":"1 47990U 21024P   22087.91667824 -.00006084  00000-0 -38989-3 0  9990","ECCENTRICITY":"0.00014590","PERIAPSIS":"546.199","INCLINATION":"53.0520","OBJECT_NAME":"STARLINK-2307","ELEMENT_SET_NO":"999","ARG_OF_PERICENTER":"52.4362","DECAY_DATE":null,"OBJECT_TYPE":"PAYLOAD","RCS_SIZE":"LARGE","NORAD_CAT_ID":"47990","CLASSIFICATION_TYPE":"U","TIME_SYSTEM":"UTC","FILE":"3378342","EPOCH":"2022-03-28T22:00:00.999936","TLE_LINE2":"2 47990  53.0520 238.9839 0001459  52.4362  18.0443 15.06401346  3596","MEAN_MOTION_DDOT":"0.0000000000000","REF_FRAME":"TEME","OBJECT_ID":"2021-024P","MEAN_MOTION":"15.06401346","MEAN_MOTION_DOT":"-0.00006084","SEMIMAJOR_AXIS":"6925.344","EPHEMERIS_TYPE":"0","SITE":"AFETR","BSTAR":"-0.00038989000000","COUNTRY_CODE":"US","MEAN_ANOMALY":"18.0443","MEAN_ELEMENT_THEORY":"SGP4","APOAPSIS":"548.220","CENTER_NAME":"EARTH","GP_ID":"199942686","RA_OF_ASC_NODE":"238.9839"},{"MEAN_ANOMALY":"291.2258","SITE":"AFETR","COUNTRY_CODE":"US","BSTAR":"0.00350990000000","EPHEMERIS_TYPE":"0","SEMIMAJOR_AXIS":"6925.446","RA_OF_ASC_NODE":"253.9914","CENTER_NAME":"EARTH","GP_ID":"199943438","MEAN_ELEMENT_THEORY":"SGP4","APOAPSIS":"548.390","MEAN_MOTION_DDOT":"0.0000000000000","REF_FRAME":"TEME","TLE_LINE2":"2 47991  53.0529 253.9914 0001558  81.7985 291.2258 15.06368129  3593","EPOCH":"2022-03-28T22:00:00.999936","MEAN_MOTION_DOT":"0.00052343","MEAN_MOTION":"15.06368129","OBJECT_ID":"2021-024Q","NORAD_CAT_ID":"47991","RCS_SIZE":"LARGE","CLASSIFICATION_TYPE":"U","DECAY_DATE":null,"ARG_OF_PERICENTER":"81.7985","OBJECT_TYPE":"PAYLOAD","FILE":"3378342","TIME_SYSTEM":"UTC","ECCENTRICITY":"0.00015580","REV_AT_EPOCH":"359","TLE_LINE1":"1 47991U 21024Q   22087.91667824  .00052343  00000-0  35099-2 0  9996","PERIOD":"95.594","LAUNCH_DATE":"2021-03-24","ELEMENT_SET_NO":"999","INCLINATION":"53.0529","OBJECT_NAME":"STARLINK-2279","PERIAPSIS":"546.232"},{"PERIAPSIS":"545.995","OBJECT_NAME":"STARLINK-2229","INCLINATION":"53.0525","ELEMENT_SET_NO":"999","LAUNCH_DATE":"2021-03-24","PERIOD":"95.592","TLE_LINE1":"1 47992U 21024R   22087.91667824  .00010732  00000-0  73828-3 0  9996","REV_AT_EPOCH":"358","ECCENTRICITY":"0.00017600","TIME_SYSTEM":"UTC","FILE":"3378342","OBJECT_TYPE":"PAYLOAD","DECAY_DATE":null,"ARG_OF_PERICENTER":"54.7269","CLASSIFICATION_TYPE":"U","RCS_SIZE":"LARGE","NORAD_CAT_ID":"47992","OBJECT_ID":"2021-024R","MEAN_MOTION":"15.06399901","MEAN_MOTION_DOT":"0.00010732","EPOCH":"2022-03-28T22:00:00.999936","TLE_LINE2":"2 47992  53.0525 248.9947 0001760  54.7269 245.9175 15.06399901  3585","REF_FRAME":"TEME","MEAN_MOTION_DDOT":"0.0000000000000","APOAPSIS":"548.433","MEAN_ELEMENT_THEORY":"SGP4","GP_ID":"199944189","CENTER_NAME":"EARTH","RA_OF_ASC_NODE":"248.9947","SEMIMAJOR_AXIS":"6925.349","EPHEMERIS_TYPE":"0","COUNTRY_CODE":"US","BSTAR":"0.00073828000000","SITE":"AFETR","MEAN_ANOMALY":"245.9175"},{"RCS_SIZE":"LARGE","NORAD_CAT_ID":"47993","CLASSIFICATION_TYPE":"U","DECAY_DATE":null,"ARG_OF_PERICENTER":"63.7580","OBJECT_TYPE":"PAYLOAD","FILE":"3378342","TIME_SYSTEM":"UTC","ECCENTRICITY":"0.00016820","REV_AT_EPOCH":"5780","TLE_LINE1":"1 47993U 21024S   22087.87699007  .00001417  00000-0  11402-3 0  9990","PERIOD":"95.592","LAUNCH_DATE":"2021-03-24","ELEMENT_SET_NO":"999","INCLINATION":"53.0537","OBJECT_NAME":"STARLINK-2273","PERIAPSIS":"546.041","MEAN_ANOMALY":"296.3582","SITE":"AFETR","COUNTRY_CODE":"US","BSTAR":"0.00011402000000","EPHEMERIS_TYPE":"0","SEMIMAJOR_AXIS":"6925.341","RA_OF_ASC_NODE":"289.1812","CENTER_NAME":"EARTH","GP_ID":"199942937","MEAN_ELEMENT_THEORY":"SGP4","APOAPSIS":"548.371","MEAN_MOTION_DDOT":"0.0000000000000","REF_FRAME":"TEME","TLE_LINE2":"2 47993  53.0537 289.1812 0001682  63.7580 296.3582 15.06402520 57804","EPOCH":"2022-03-28T21:02:51.942048","MEAN_MOTION":"15.06402520","MEAN_MOTION_DOT":"0.00001417","OBJECT_ID":"2021-024S"}];
